[{"OBJECT_NAME":"STARLINK-34165","OBJECT_ID":"2025-101D","EPOCH":"2026-03-09T16:00:03.000096","MEAN_MOTION":15.27542503,"ECCENTRICITY":0.00017788,"INCLINATION":43.0037,"RA_OF_ASC_NODE":357.7874,"ARG_OF_PERICENTER":272.4604,"MEAN_ANOMALY":146.8496,"EPHEMERIS_TYPE":0,"CLASSIFICATION_TYPE":"U","NORAD_CAT_ID":63997,"ELEMENT_SET_NO":999,"REV_AT_EPOCH":577,"BSTAR":0.0015048177,"MEAN_MOTION_DOT":0.00041332,"MEAN_MOTION_DDOT":0},{"OBJECT_NAME":"FREGAT DEB","OBJECT_ID":"2011-037DJ","EPOCH":"2026-03-09T05:46:54.234336","MEAN_MOTION":14.1723702,"ECCENTRICITY":0.05960905,"INCLINATION":51.3214,"RA_OF_ASC_NODE":17.6938,"ARG_OF_PERICENTER":2.2668,"MEAN_ANOMALY":358.0757,"EPHEMERIS_TYPE":0,"CLASSIFICATION_TYPE":"U","NORAD_CAT_ID":45889,"ELEMENT_SET_NO":999,"REV_AT_EPOCH":24920,"BSTAR":0.025332087,"MEAN_MOTION_DOT":0.00335975,"MEAN_MOTION_DDOT":0}]
